[{"OBJECT_NAME":"CYGFM08","OBJECT_ID":"2016-078E","EPOCH":"2026-03-09T16:58:37.605216","MEAN_MOTION":15.54408853,"ECCENTRICITY":0.00081204,"INCLINATION":34.9429,"RA_OF_ASC_NODE":180.8023,"ARG_OF_PERICENTER":305.08,"MEAN_ANOMALY":54.9162,"EPHEMERIS_TYPE":0,"CLASSIFICATION_TYPE":"U","NORAD_CAT_ID":41888,"ELEMENT_SET_NO":999,"REV_AT_EPOCH":51345,"BSTAR":0.0013553103,"MEAN_MOTION_DOT":0.00093021,"MEAN_MOTION_DDOT":0},{"OBJECT_NAME":"STARLINK-1420","OBJECT_ID":"2020-035AQ","EPOCH":"2026-03-10T00:00:02.999808","MEAN_MOTION":15.53743401,"ECCENTRICITY":0.00043485,"INCLINATION":53.0536,"RA_OF_ASC_NODE":20.9202,"ARG_OF_PERICENTER":112.4673,"MEAN_ANOMALY":249.9349,"EPHEMERIS_TYPE":0,"CLASSIFICATION_TYPE":"U","NORAD_CAT_ID":45695,"ELEMENT_SET_NO":999,"REV_AT_EPOCH":587,"BSTAR":0.0013975342,"MEAN_MOTION_DOT":0.00091715,"MEAN_MOTION_DDOT":0}]
